[{"OBJECT_NAME":"STARLINK-30237","OBJECT_ID":"2023-105H","EPOCH":"2026-03-09T22:00:01.999584","MEAN_MOTION":15.5838538,"ECCENTRICITY":0.00169043,"INCLINATION":42.9966,"RA_OF_ASC_NODE":232.8195,"ARG_OF_PERICENTER":331.6845,"MEAN_ANOMALY":157.5777,"EPHEMERIS_TYPE":0,"CLASSIFICATION_TYPE":"U","NORAD_CAT_ID":57437,"ELEMENT_SET_NO":999,"REV_AT_EPOCH":590,"BSTAR":0.006209192,"MEAN_MOTION_DOT":0.00519869,"MEAN_MOTION_DDOT":0},{"OBJECT_NAME":"CZ-2C R\/B","OBJECT_ID":"2022-058K","EPOCH":"2026-03-09T23:05:50.922816","MEAN_MOTION":15.54254025,"ECCENTRICITY":0.00421889,"INCLINATION":50.1896,"RA_OF_ASC_NODE":316.8869,"ARG_OF_PERICENTER":202.0876,"MEAN_ANOMALY":157.8278,"EPHEMERIS_TYPE":0,"CLASSIFICATION_TYPE":"U","NORAD_CAT_ID":52794,"ELEMENT_SET_NO":999,"REV_AT_EPOCH":21017,"BSTAR":0.00054229515,"MEAN_MOTION_DOT":0.00037216,"MEAN_MOTION_DDOT":0}]
